HXMT (HUIYAN)           
1 42758U 17034A   26063.84082168  .00007372  00000+0  36894-3 0  9996
2 42758  43.0151  43.6284 0032437 206.3154 153.6047 15.17385045481805
SAOCOM 1A               
1 43641U 18076A   26063.83223625  .00001103  00000+0  14503-3 0  9998
2 43641  97.8882 252.0735 0001328  81.6720 278.4643 14.82165330400645
H-2A R/B                
1 43682U 18084L   26063.47397986  .00031408  00000+0  75106-3 0  9991
2 43682  98.8732 279.7485 0025810  42.8998 317.4252 15.41086443404974
SAOCOM 1B               
1 46265U 20059A   26063.79594830  .00000464  00000+0  64873-4 0  9996
2 46265  97.8881 251.1356 0001434  81.0295 279.1081 14.82165755298029
CSS (TIANHE)            
1 48274U 21035A   26063.78776639  .00021476  00000+0  25733-3 0  9998
2 48274  41.4657 237.9826 0006814 244.2570 115.7565 15.60402079276845
COSMOS 2550             
1 48865U 21056A   26063.88759183 -.00000196  00000+0 -13854-6 0  9995
2 48865  67.1448  55.4573 0008389 269.3861  90.6332 15.33827808262722
CZ-2C R/B               
1 52794U 22058K   26063.17532213  .00045844  00000+0  67772-3 0  9991
2 52794  50.1907 346.6454 0042178 177.4326 182.6868 15.53767749209278
CZ-2C R/B               
1 54039U 22132E   26063.50153328  .00060531  00000+0  70215-3 0  9997
2 54039  97.2960  66.6628 0020700 107.7548 252.5971 15.61335970189561
GSLV R/B                
1 54149U 22138AN  26063.30543674  .00005589  00000+0  48444-3 0  9991
2 54149  87.3887 168.1641 0022221 165.3258 194.8623 14.96730402183126
XRISM                   
1 57800U 23137A   26063.75375822  .00008020  00000+0  45695-3 0  9993
2 57800  31.0029 315.5881 0008132 348.4623  11.5828 15.11433296137047
ACS3                    
1 59588U 24077B   26063.45720899  .00025829  00000+0  20890-1 0  9991
2 59588  97.2108   5.7453 0055747  90.7142 270.0410 13.89335925 93474
SZ-21 MODULE            
1 66515U 25246C   26063.53344538  .00046935  00000+0  41049-3 0  9991
2 66515  41.4731 235.0908 0001435 286.9627  73.1057 15.68084352 17266
